{
  "type": "FeatureCollection",
  "features": [
    {
      "type": "Feature",
      "properties": {
        "norad_id": 67082,
        "name": "STARLINK-36035",
        "group": "last-30-days",
        "lat": -11.924809364532802,
        "lon": -150.2184894294829,
        "alt_km": 332.3656526351497,
        "timestamp": "2025-12-25T07:41:08.452566+00:00",
        "meta_object_name": "STARLINK-36035",
        "meta_object_id": "2025-298H",
        "meta_epoch": "2025-12-24T22:00:03.000096",
        "meta_mean_motion": 15.81937294,
        "meta_eccentricity": 0.00036017,
        "meta_inclination": 69.9972,
        "meta_ra_of_asc_node": 215.3469,
        "meta_arg_of_pericenter": 275.0279,
        "meta_mean_anomaly": 296.033,
        "meta_ephemeris_type": 0,
        "meta_classification_type": "U",
        "meta_norad_cat_id": 67082,
        "meta_element_set_no": 999,
        "meta_rev_at_epoch": 293,
        "meta_bstar": -0.009480623,
        "meta_mean_motion_dot": -0.01677947,
        "meta_mean_motion_ddot": 0,
        "tle_line1": "1 67082U 25298H   25358.91670139 -.01677947  00000+0 -94806-2 0  9999",
        "tle_line2": "2 67082  69.9972 215.3469 0003601 275.0279 296.0330 15.81937294  2935"
      },
      "geometry": {
        "type": "Point",
        "coordinates": [
          -150.2184894294829,
          -11.924809364532802
        ]
      }
    },
    {
      "type": "Feature",
      "properties": {
        "norad_id": 67083,
        "name": "STARLINK-36170",
        "group": "last-30-days",
        "lat": -9.954098195886969,
        "lon": -149.47468283231214,
        "alt_km": 332.44668977853416,
        "timestamp": "2025-12-25T07:41:08.452576+00:00",
        "meta_object_name": "STARLINK-36170",
        "meta_object_id": "2025-298J",
        "meta_epoch": "2025-12-24T22:00:03.000096",
        "meta_mean_motion": 15.81934612,
        "meta_eccentricity": 0.00036923,
        "meta_inclination": 69.9969,
        "meta_ra_of_asc_node": 215.3441,
        "meta_arg_of_pericenter": 270.0586,
        "meta_mean_anomaly": 303.1073,
        "meta_ephemeris_type": 0,
        "meta_classification_type": "U",
        "meta_norad_cat_id": 67083,
        "meta_element_set_no": 999,
        "meta_rev_at_epoch": 293,
        "meta_bstar": -0.0094844651,
        "meta_mean_motion_dot": -0.01678457,
        "meta_mean_motion_ddot": 0,
        "tle_line1": "1 67083U 25298J   25358.91670139 -.01678457  00000+0 -94845-2 0  9990",
        "tle_line2": "2 67083  69.9969 215.3441 0003692 270.0586 303.1073 15.81934612  2933"
      },
      "geometry": {
        "type": "Point",
        "coordinates": [
          -149.47468283231214,
          -9.954098195886969
        ]
      }
    },
    {
      "type": "Feature",
      "properties": {
        "norad_id": 67084,
        "name": "STARLINK-36166",
        "group": "last-30-days",
        "lat": -8.079735999574428,
        "lon": -148.77588073457585,
        "alt_km": 332.13660735717986,
        "timestamp": "2025-12-25T07:41:08.452588+00:00",
        "meta_object_name": "STARLINK-36166",
        "meta_object_id": "2025-298K",
        "meta_epoch": "2025-12-24T22:00:03.000096",
        "meta_mean_motion": 15.81926199,
        "meta_eccentricity": 0.00036266,
        "meta_inclination": 69.997,
        "meta_ra_of_asc_node": 215.3416,
        "meta_arg_of_pericenter": 274.7977,
        "meta_mean_anomaly": 300.3788,
        "meta_ephemeris_type": 0,
        "meta_classification_type": "U",
        "meta_norad_cat_id": 67084,
        "meta_element_set_no": 999,
        "meta_rev_at_epoch": 287,
        "meta_bstar": -0.0094764091,
        "meta_mean_motion_dot": -0.01676573,
        "meta_mean_motion_ddot": 0,
        "tle_line1": "1 67084U 25298K   25358.91670139 -.01676573  00000+0 -94764-2 0  9998",
        "tle_line2": "2 67084  69.9970 215.3416 0003626 274.7977 300.3788 15.81926199  2876"
      },
      "geometry": {
        "type": "Point",
        "coordinates": [
          -148.77588073457585,
          -8.079735999574428
        ]
      }
    },
    {
      "type": "Feature",
      "properties": {
        "norad_id": 67085,
        "name": "STARLINK-35794",
        "group": "last-30-days",
        "lat": -6.22741531118433,
        "lon": -148.0918571906119,
        "alt_km": 332.2407722653352,
        "timestamp": "2025-12-25T07:41:08.452610+00:00",
        "meta_object_name": "STARLINK-35794",
        "meta_object_id": "2025-298L",
        "meta_epoch": "2025-12-24T22:00:03.000096",
        "meta_mean_motion": 15.81928681,
        "meta_eccentricity": 0.00036888,
        "meta_inclination": 69.9971,
        "meta_ra_of_asc_node": 215.3394,
        "meta_arg_of_pericenter": 269.1579,
        "meta_mean_anomaly": 307.988,
        "meta_ephemeris_type": 0,
        "meta_classification_type": "U",
        "meta_norad_cat_id": 67085,
        "meta_element_set_no": 999,
        "meta_rev_at_epoch": 293,
        "meta_bstar": -0.0094839139,
        "meta_mean_motion_dot": -0.01677964,
        "meta_mean_motion_ddot": 0,
        "tle_line1": "1 67085U 25298L   25358.91670139 -.01677964  00000+0 -94839-2 0  9997",
        "tle_line2": "2 67085  69.9971 215.3394 0003688 269.1579 307.9880 15.81928681  2938"
      },
      "geometry": {
        "type": "Point",
        "coordinates": [
          -148.0918571906119,
          -6.22741531118433
        ]
      }
    },
    {
      "type": "Feature",
      "properties": {
        "norad_id": 67086,
        "name": "STARLINK-35841",
        "group": "last-30-days",
        "lat": -4.176478811438721,
        "lon": -147.34063138096656,
        "alt_km": 331.9575467585564,
        "timestamp": "2025-12-25T07:41:08.452622+00:00",
        "meta_object_name": "STARLINK-35841",
        "meta_object_id": "2025-298M",
        "meta_epoch": "2025-12-24T22:00:03.000096",
        "meta_mean_motion": 15.81926988,
        "meta_eccentricity": 0.00036996,
        "meta_inclination": 69.9969,
        "meta_ra_of_asc_node": 215.3368,
        "meta_arg_of_pericenter": 272.6623,
        "meta_mean_anomaly": 306.6774,
        "meta_ephemeris_type": 0,
        "meta_classification_type": "U",
        "meta_norad_cat_id": 67086,
        "meta_element_set_no": 999,
        "meta_rev_at_epoch": 293,
        "meta_bstar": -0.009549574,
        "meta_mean_motion_dot": -0.0168791,
        "meta_mean_motion_ddot": 0,
        "tle_line1": "1 67086U 25298M   25358.91670139 -.01687910  00000+0 -95496-2 0  9990",
        "tle_line2": "2 67086  69.9969 215.3368 0003699 272.6623 306.6774 15.81926988  2934"
      },
      "geometry": {
        "type": "Point",
        "coordinates": [
          -147.34063138096656,
          -4.176478811438721
        ]
      }
    },
    {
      "type": "Feature",
      "properties": {
        "norad_id": 67087,
        "name": "STARLINK-35842",
        "group": "last-30-days",
        "lat": -6.1720332941909986,
        "lon": -148.07180601612112,
        "alt_km": 337.3128736155577,
        "timestamp": "2025-12-25T07:41:08.452636+00:00",
        "meta_object_name": "STARLINK-35842",
        "meta_object_id": "2025-298N",
        "meta_epoch": "2025-12-24T22:00:03.000096",
        "meta_mean_motion": 15.80761111,
        "meta_eccentricity": 0.00035033,
        "meta_inclination": 69.9969,
        "meta_ra_of_asc_node": 215.3365,
        "meta_arg_of_pericenter": 267.9967,
        "meta_mean_anomaly": 311.3648,
        "meta_ephemeris_type": 0,
        "meta_classification_type": "U",
        "meta_norad_cat_id": 67087,
        "meta_element_set_no": 999,
        "meta_rev_at_epoch": 293,
        "meta_bstar": -0.014307756,
        "meta_mean_motion_dot": -0.0238633,
        "meta_mean_motion_ddot": 0,
        "tle_line1": "1 67087U 25298N   25358.91670139 -.02386330  00000+0 -14308-1 0  9996",
        "tle_line2": "2 67087  69.9969 215.3365 0003503 267.9967 311.3648 15.80761111  2931"
      },
      "geometry": {
        "type": "Point",
        "coordinates": [
          -148.07180601612112,
          -6.1720332941909986
        ]
      }
    },
    {
      "type": "Feature",
      "properties": {
        "norad_id": 67088,
        "name": "STARLINK-35882",
        "group": "last-30-days",
        "lat": -0.47421747671006936,
        "lon": -145.99369159703966,
        "alt_km": 331.65843516153836,
        "timestamp": "2025-12-25T07:41:08.452646+00:00",
        "meta_object_name": "STARLINK-35882",
        "meta_object_id": "2025-298P",
        "meta_epoch": "2025-12-24T22:00:03.000096",
        "meta_mean_motion": 15.81914851,
        "meta_eccentricity": 0.00036619,
        "meta_inclination": 69.9972,
        "meta_ra_of_asc_node": 215.3321,
        "meta_arg_of_pericenter": 272.8946,
        "meta_mean_anomaly": 310.3983,
        "meta_ephemeris_type": 0,
        "meta_classification_type": "U",
        "meta_norad_cat_id": 67088,
        "meta_element_set_no": 999,
        "meta_rev_at_epoch": 293,
        "meta_bstar": -0.0095111348,
        "meta_mean_motion_dot": -0.01681155,
        "meta_mean_motion_ddot": 0,
        "tle_line1": "1 67088U 25298P   25358.91670139 -.01681155  00000+0 -95111-2 0  9991",
        "tle_line2": "2 67088  69.9972 215.3321 0003661 272.8946 310.3983 15.81914851  2938"
      },
      "geometry": {
        "type": "Point",
        "coordinates": [
          -145.99369159703966,
          -0.47421747671006936
        ]
      }
    }
  ]
}